OBJECT_NAME,OBJECT_ID,EPOCH,MEAN_MOTION,ECCENTRICITY,INCLINATION,RA_OF_ASC_NODE,ARG_OF_PERICENTER,MEAN_ANOMALY,EPHEMERIS_TYPE,CLASSIFICATION_TYPE,NORAD_CAT_ID,ELEMENT_SET_NO,REV_AT_EPOCH,BSTAR,MEAN_MOTION_DOT,MEAN_MOTION_DDOT
WT 1B,2019-032G,2026-07-03T14:47:08.270016,15.27513925,.00096751,44.9718,331.2440,330.9016,29.1327,0,U,44316,999,38959,.34924939E-3,.9303E-4,0
PROX-1,2019-036A,2026-07-02T20:29:13.960320,14.91007399,.00053133,23.9963,9.5714,218.6502,141.3618,0,U,44339,999,37581,.16867595E-2,.174E-3,0
NPSAT1,2019-036B,2026-07-02T11:28:44.141952,14.74718407,.0007341,23.9982,118.1554,27.0064,333.0813,0,U,44340,999,37475,.92078E-3,.654E-4,0
FORMOSAT 7-3,2019-036E,2026-07-02T18:43:31.020096,15.09911967,.00010273,23.9994,71.2101,97.3502,262.7118,0,U,44343,999,38560,.31172965E-3,.5535E-4,0
FORMOSAT 7-1,2019-036L,2026-07-02T15:34:45.568128,14.96573842,.00008868,23.9985,288.1529,27.3698,332.6849,0,U,44349,999,38697,.23868509E-3,.3086E-4,0
FORMOSAT 7-4,2019-036M,2026-07-02T19:19:16.104000,14.96567608,.00013191,23.9999,349.2061,27.9811,332.0760,0,U,44350,999,38641,.25853086E-3,.3317E-4,0
FORMOSAT 7-2,2019-036N,2026-07-02T19:51:27.169056,14.96565666,.00007438,23.9995,43.3689,34.3966,325.6583,0,U,44351,999,38593,.26830336E-3,.3431E-4,0
FORMOSAT 7-6,2019-036Q,2026-07-02T11:50:51.124128,14.96572305,.000063,23.9967,226.4357,283.6953,76.3478,0,U,44353,999,38411,.20418E-3,.2684E-4,0
FORMOSAT 7-5,2019-036V,2026-07-02T14:30:08.140032,14.96549666,.0000423,23.9964,164.4362,59.9486,300.1057,0,U,44358,999,38466,.14627E-3,.2007E-4,0
METEOR-M2 2,2019-038A,2026-07-03T14:41:17.115360,14.24368886,.00014171,98.9150,172.1403,23.4090,336.7152,0,U,44387,999,36363,-.99007864E-4,-.275E-5,0
GLOBAL-4,2019-054E,2026-07-02T09:30:18.268992,15.65794716,.0003949,45.0045,148.5536,92.2858,267.8492,0,U,44499,999,38274,.55266E-3,.57474E-3,0
ZY-1 02D,2019-059A,2026-07-03T14:09:23.685408,14.35266078,.00037181,98.6717,246.0895,341.7075,18.3975,0,U,44528,999,35669,.95916225E-4,.23E-5,0
TAURUS-1 (JINNIUZUO 1),2019-059C,2026-07-03T16:34:42.324096,14.72268870,.00073548,98.6427,350.5441,256.2431,103.7956,0,U,44530,999,36107,.90229471E-3,.5648E-4,0
ZHUHAI-1 03B,2019-060C,2026-07-03T15:53:27.668256,15.55033416,.00077031,97.5547,343.3285,249.8673,110.1752,0,U,44536,999,37888,.60349904E-3,.40598E-3,0
ZHUHAI-1 03D,2019-060E,2026-07-03T14:51:54.989280,15.50719610,.00068861,97.5401,335.2614,234.6988,125.3620,0,U,44538,999,37862,.55612901E-3,.3198E-3,0
ZHUHAI-1 03E,2019-060F,2026-07-03T14:29:27.652992,15.41601019,.00047028,97.5635,335.1274,329.7278,30.3696,0,U,44539,999,37829,.51985513E-3,.21819E-3,0
GAOFEN-7,2019-072A,2026-07-03T17:00:02.391264,15.21387559,.00170315,97.2416,245.5513,344.0893,15.9806,0,U,44703,999,37015,.23255583E-3,.5168E-4,0
JILIN-1 GAOFEN 2A,2019-075A,2026-07-02T19:11:26.196864,15.39732042,.00063979,97.4966,267.9583,39.3504,320.8206,0,U,44777,999,36728,.37656071E-3,.14827E-3,0
NINGXIA-1 1,2019-076A,2026-07-03T15:24:38.012832,14.02040752,.00115558,45.0054,106.3168,239.0878,120.8821,0,U,44779,999,34016,.82558188E-4,-.3E-7,0
NINGXIA-1 5,2019-076E,2026-07-03T15:42:57.629088,14.02088527,.00111699,45.0052,105.5952,230.3072,129.6778,0,U,44783,999,34008,.54351629E-4,-.46E-6,0
KL-ALPHA A,2019-077A,2026-07-03T15:34:10.517376,13.56044855,.0013201,88.9234,220.7646,65.6357,294.6174,0,U,44785,999,32796,.12508585E-3,.1E-5,0
CARTOSAT-3,2019-081A,2026-07-03T16:32:19.340736,15.19257851,.00135016,97.4296,246.2903,96.4701,263.8071,0,U,44804,999,36597,.21189699E-3,.4409E-4,0
JILIN-1 GAOFEN 2B,2019-086A,2026-07-02T19:22:01.049376,15.20883356,.00124972,97.4876,255.7011,263.2099,96.7714,0,U,44836,999,36286,.36166969E-3,.7941E-4,0
TIANQIN 1 (CAS-6),2019-093A,2026-07-03T16:23:21.607872,14.95514878,.00112175,97.7806,268.4050,5.5250,354.6093,0,U,44879,999,35451,.35215566E-3,.3848E-4,0
ETRSS-1,2019-093B,2026-07-03T16:26:14.377632,14.95956212,.00113682,97.7824,268.8806,5.5541,354.5804,0,U,44880,999,35452,.299179E-3,.3297E-4,0
TIANYAN 01,2019-093C,2026-07-03T12:52:07.502880,14.86543846,.00145348,97.7529,256.3696,38.1122,322.1119,0,U,44881,999,35384,.69952585E-4,.567E-5,0
TIANYAN 02,2019-093D,2026-07-03T14:30:49.687200,15.05426985,.00127448,97.7945,279.5539,331.5983,28.4547,0,U,44882,999,35508,.63569931E-3,.9082E-4,0
CBERS 4A,2019-093E,2026-07-03T16:56:00.093696,14.81429616,.00007586,98.0187,252.1599,127.7654,232.3627,0,U,44883,999,35352,.1717643E-3,.1291E-4,0
